[
    {
        "Altitude(m)": 568063.7673803627,
        "Argument of Periapsis(deg)": 0.033114955553567506,
        "Eccentricity": 0.0,
        "Inclination(deg)": 53.0,
        "Latitude(deg)": -43.72070906212022,
        "Longitude(deg)": -68.20559863242696,
        "Mean Anomaly(deg)": -120.45103566211203,
        "RAAN(deg)": 169.9507168426401,
        "Satellite Name": "Starlink Shell 1 759",
        "Satellite Number": 759,
        "Semi-Major Axis(m)": 6931778.249405717,
        "Time(s)": 950
    },
    {
        "Altitude(m)": 568206.431021109,
        "Argument of Periapsis(deg)": 0.03346353403307874,
        "Eccentricity": 0.0,
        "Inclination(deg)": 53.0,
        "Latitude(deg)": -44.06721339253117,
        "Longitude(deg)": -67.5261401697991,
        "Mean Anomaly(deg)": -119.82420445855534,
        "RAAN(deg)": 169.95019807256264,
        "Satellite Name": "Starlink Shell 1 759",
        "Satellite Number": 759,
        "Semi-Major Axis(m)": 6931778.249405717,
        "Time(s)": 960
    },
    {
        "Altitude(m)": 568347.0570724681,
        "Argument of Periapsis(deg)": 0.03381211251258998,
        "Eccentricity": 0.0,
        "Inclination(deg)": 53.0,
        "Latitude(deg)": -44.40909165391537,
        "Longitude(deg)": -66.83830180829186,
        "Mean Anomaly(deg)": -119.19737325499862,
        "RAAN(deg)": 169.94967930248515,
        "Satellite Name": "Starlink Shell 1 759",
        "Satellite Number": 759,
        "Semi-Major Axis(m)": 6931778.249405717,
        "Time(s)": 970
    },
    {
        "Altitude(m)": 568485.5901906693,
        "Argument of Periapsis(deg)": 0.034160690992101214,
        "Eccentricity": 0.0,
        "Inclination(deg)": 53.0,
        "Latitude(deg)": -44.74623589570954,
        "Longitude(deg)": -66.14200058748794,
        "Mean Anomaly(deg)": -118.57054205144188,
        "RAAN(deg)": 169.9491605324077,
        "Satellite Name": "Starlink Shell 1 759",
        "Satellite Number": 759,
        "Semi-Major Axis(m)": 6931778.249405717,
        "Time(s)": 980
    },
    {
        "Altitude(m)": 568621.9758159886,
        "Argument of Periapsis(deg)": 0.034509269471612446,
        "Eccentricity": 0.0,
        "Inclination(deg)": 53.0,
        "Latitude(deg)": -45.078536519588276,
        "Longitude(deg)": -65.43715826469652,
        "Mean Anomaly(deg)": -117.94371084788523,
        "RAAN(deg)": 169.94864176233023,
        "Satellite Name": "Starlink Shell 1 759",
        "Satellite Number": 759,
        "Semi-Major Axis(m)": 6931778.249405717,
        "Time(s)": 990
    }
]